{
    "links": {
        "self": "http://www.neowsapp.com/rest/v1/neo/3672360?api_key=iIulBulltgU6a56xZRHN4H3l9WmuAYTsLGpBGhQ2"
    },
    "id": "3672360",
    "neo_reference_id": "3672360",
    "name": "(2014 KM22)",
    "designation": "2014 KM22",
    "nasa_jpl_url": "http://ssd.jpl.nasa.gov/sbdb.cgi?sstr=3672360",
    "absolute_magnitude_h": 26.5,
    "estimated_diameter": {
        "kilometers": {
            "estimated_diameter_min": 0.0133215567,
            "estimated_diameter_max": 0.0297879063
        },
        "meters": {
            "estimated_diameter_min": 13.3215566698,
            "estimated_diameter_max": 29.7879062798
        },
        "miles": {
            "estimated_diameter_min": 0.008277629,
            "estimated_diameter_max": 0.0185093411
        },
        "feet": {
            "estimated_diameter_min": 43.7058959846,
            "estimated_diameter_max": 97.7293544391
        }
    },
    "is_potentially_hazardous_asteroid": false,
    "close_approach_data": [
        {
            "close_approach_date": "2010-04-17",
            "close_approach_date_full": "2010-Apr-17 08:28",
            "epoch_date_close_approach": 1271492880000,
            "relative_velocity": {
                "kilometers_per_second": "15.4425542282",
                "kilometers_per_hour": "55593.1952216892",
                "miles_per_hour": "34543.4495531657"
            },
            "miss_distance": {
                "astronomical": "0.400807506",
                "lunar": "155.914119834",
                "kilometers": "59959949.17761222",
                "miles": "37257384.771079836"
            },
            "orbiting_body": "Earth"
        },
        {
            "close_approach_date": "2012-04-29",
            "close_approach_date_full": "2012-Apr-29 08:09",
            "epoch_date_close_approach": 1335686940000,
            "relative_velocity": {
                "kilometers_per_second": "9.4710020699",
                "kilometers_per_hour": "34095.6074517691",
                "miles_per_hour": "21185.6845302395"
            },
            "miss_distance": {
                "astronomical": "0.1985672765",
                "lunar": "77.2426705585",
                "kilometers": "29705241.616101055",
                "miles": "18457981.232282359"
            },
            "orbiting_body": "Earth"
        },
        {
            "close_approach_date": "2014-05-28",
            "close_approach_date_full": "2014-May-28 08:34",
            "epoch_date_close_approach": 1401266040000,
            "relative_velocity": {
                "kilometers_per_second": "4.3456312331",
                "kilometers_per_hour": "15644.2724391072",
                "miles_per_hour": "9720.7425052886"
            },
            "miss_distance": {
                "astronomical": "0.0479907015",
                "lunar": "18.6683828835",
                "kilometers": "7179306.724205805",
                "miles": "4461014.338437909"
            },
            "orbiting_body": "Earth"
        },
        {
            "close_approach_date": "2016-06-30",
            "close_approach_date_full": "2016-Jun-30 08:45",
            "epoch_date_close_approach": 1467276300000,
            "relative_velocity": {
                "kilometers_per_second": "8.3736478891",
                "kilometers_per_hour": "30145.132400766",
                "miles_per_hour": "18731.0129631315"
            },
            "miss_distance": {
                "astronomical": "0.1678042079",
                "lunar": "65.2758368731",
                "kilometers": "25103152.078877173",
                "miles": "15598375.3955360674"
            },
            "orbiting_body": "Earth"
        },
        {
            "close_approach_date": "2018-07-15",
            "close_approach_date_full": "2018-Jul-15 08:08",
            "epoch_date_close_approach": 1531642080000,
            "relative_velocity": {
                "kilometers_per_second": "14.2153146192",
                "kilometers_per_hour": "51175.1326290833",
                "miles_per_hour": "31798.2372716657"
            },
            "miss_distance": {
                "astronomical": "0.3585786619",
                "lunar": "139.4870994791",
                "kilometers": "53642604.047690153",
                "miles": "33331968.5313159914"
            },
            "orbiting_body": "Earth"
        }
    ],
    "orbital_data": {
        "orbit_id": "6",
        "orbit_determination_date": "2017-04-06 08:40:24",
        "first_observation_date": "2014-05-20",
        "last_observation_date": "2014-05-30",
        "data_arc_in_days": 10,
        "observations_used": 17,
        "orbit_uncertainty": "7",
        "minimum_orbit_intersection": ".0476521",
        "jupiter_tisserand_invariant": "4.287",
        "epoch_osculation": "2459000.5",
        "eccentricity": ".3390868069300507",
        "semi_major_axis": "1.60436519985277",
        "inclination": "2.499466651752546",
        "ascending_node_longitude": "235.9710279681104",
        "orbital_period": "742.2552475401807",
        "perihelion_distance": "1.060346127085001",
        "perihelion_argument": "12.84519405282296",
        "aphelion_distance": "2.148384272620538",
        "perihelion_time": "2459033.278718947590",
        "mean_anomaly": "344.1020472940562",
        "mean_motion": ".4850083595811993",
        "equinox": "J2000",
        "orbit_class": {
            "orbit_class_type": "AMO",
            "orbit_class_description": "Near-Earth asteroid orbits similar to that of 1221 Amor",
            "orbit_class_range": "1.017 AU < q (perihelion) < 1.3 AU"
        }
    },
    "is_sentry_object": false
}